OBJECT_NAME,OBJECT_ID,EPOCH,MEAN_MOTION,ECCENTRICITY,INCLINATION,RA_OF_ASC_NODE,ARG_OF_PERICENTER,MEAN_ANOMALY,EPHEMERIS_TYPE,CLASSIFICATION_TYPE,NORAD_CAT_ID,ELEMENT_SET_NO,REV_AT_EPOCH,BSTAR,MEAN_MOTION_DOT,MEAN_MOTION_DDOT
SKYSAT-C1,2016-040C,2026-07-14T15:12:31.447584,15.36741961,.00003178,96.9549,225.8712,324.3548,35.7676,0,U,41601,999,56208,.14606466E-3,.5168E-4,0
LAPAN-A3,2016-040E,2026-07-14T22:17:51.654912,15.33276828,.00082581,97.1504,191.1681,277.4209,82.6095,0,U,41603,999,55906,.60147972E-4,.186E-4,0
GAOFEN-3,2016-049A,2026-07-14T23:22:25.849056,14.42218154,.00017649,98.4011,203.3404,85.5019,274.6373,0,U,41727,999,52265,-.43785327E-4,-.188E-5,0
SKYSAT-C4,2016-058B,2026-07-14T14:14:17.461824,15.49423800,.000344,96.9161,216.2317,118.7398,241.4200,0,U,41771,999,54971,.19537E-3,.10646E-3,0
SKYSAT-C5,2016-058C,2026-07-14T16:32:38.550912,15.33714814,.00024931,97.0455,235.0967,161.8112,198.3222,0,U,41772,999,54796,.13126712E-3,.4205E-4,0
SKYSAT-C2,2016-058D,2026-07-14T23:05:13.976448,15.42676894,.00015394,97.0155,217.0212,355.1441,4.9792,0,U,41773,999,54933,.1644216E-3,.7086E-4,0
SKYSAT-C3,2016-058E,2026-07-14T15:42:36.251136,15.53690773,.00024903,96.8992,225.4634,132.7023,227.4442,0,U,41774,999,55037,.23228821E-3,.14766E-3,0
ALSAT-1B,2016-059C,2026-07-14T23:15:26.252640,14.72293344,.00102957,97.7749,203.5339,130.4162,229.7946,0,U,41785,999,52466,-.3414266E-5,-.69E-6,0
PATHFINDER 1,2016-059E,2026-07-14T22:51:27.464544,14.67693013,.00298009,97.8177,193.9768,116.4385,243.9883,0,U,41787,999,52378,.56630587E-4,.278E-5,0
SCATSAT 1,2016-059H,2026-07-14T17:43:10.507584,14.79586568,.00551845,98.1179,259.7872,158.0023,202.3575,0,U,41790,999,10566,.93421483E-4,.661E-5,0
GOKTURK 1A,2016-073A,2026-07-14T21:08:18.439872,14.62792958,.00014199,98.1223,90.1176,80.1813,279.9549,0,U,41875,999,51287,.47631869E-4,.196E-5,0
RESOURCESAT-2A,2016-074A,2026-07-14T22:36:48.843936,14.21607745,.00024437,98.7528,269.2182,29.2729,330.8585,0,U,41877,999,49824,-.87345506E-4,-.236E-5,0
CARTOSAT-2D,2017-008A,2026-07-14T22:52:14.736576,15.19282225,.00060008,97.4100,254.7373,139.0958,221.0727,0,U,41948,999,52179,.66332677E-4,.1332E-4,0
SENTINEL-2B,2017-013A,2026-07-14T23:16:26.039712,14.30814635,.00012144,98.5692,270.3507,90.7203,269.4119,0,U,42063,999,48861,.9091424E-5,-.2E-6,0
CARTOSAT-2E,2017-036C,2026-07-14T23:17:49.510752,15.19251487,.00032068,97.4266,255.3127,190.0560,170.0611,0,U,42767,999,50236,.73786491E-4,.1487E-4,0
FORMOSAT-5,2017-049A,2026-07-14T21:56:07.274112,14.50907751,.0011363,98.2246,270.6067,4.7028,355.4272,0,U,42920,999,47069,.20532973E-4,.37E-6,0
SENTINEL-5P,2017-064A,2026-07-14T19:58:34.978656,14.19523253,.00011291,98.7929,137.7679,93.1727,266.9578,0,U,42969,999,45348,.2002461E-4,-.2E-7,0
SKYSAT-C11,2017-068A,2026-07-14T22:06:05.407488,15.59313204,.00011649,97.4376,345.9931,159.2858,200.8445,0,U,42987,999,48756,.22687717E-3,.17756E-3,0
SKYSAT-C10,2017-068B,2026-07-14T20:51:56.574720,15.35112497,.00014276,97.4538,332.9997,107.6386,252.5013,0,U,42988,999,48660,.18198915E-3,.6119E-4,0
SKYSAT-C9,2017-068C,2026-07-14T21:14:41.186688,15.42209004,.00086925,97.4457,334.2191,45.8055,314.3904,0,U,42989,999,48702,.17532232E-3,.7445E-4,0
SKYSAT-C8,2017-068D,2026-07-14T08:13:22.005120,15.37480933,.00012294,97.4553,332.3717,102.6122,257.5260,0,U,42990,999,48648,.16985915E-3,.6159E-4,0
SKYSAT-C7,2017-068E,2026-07-14T22:08:53.571264,15.37438463,.00057581,97.4566,333.9519,22.1951,337.9541,0,U,42991,999,48663,.1621063E-3,.5868E-4,0
SKYSAT-C6,2017-068F,2026-07-14T08:16:57.290592,15.34160841,.00051416,97.4602,333.2232,91.5369,268.6463,0,U,42992,999,48648,.16309447E-3,.5312E-4,0
CARTOSAT-2F,2018-004A,2026-07-14T22:29:51.311616,15.19266891,.00027793,97.4781,255.2988,135.1979,224.9480,0,U,43111,999,47154,.49171374E-4,.968E-5,0
GAOFEN-1 02,2018-031A,2026-07-14T22:46:36.664608,14.76472630,.00015093,98.0521,258.3962,289.0035,71.1011,0,U,43259,999,44679,.98579701E-4,.635E-5,0
GAOFEN-1 03,2018-031B,2026-07-14T23:52:39.607968,14.76462386,.00024279,98.0503,258.2975,16.2755,343.8532,0,U,43260,999,44679,.57341731E-4,.347E-5,0
GAOFEN-1 04,2018-031D,2026-07-14T23:17:40.451712,14.76469909,.00013247,98.0521,258.4675,55.7017,304.4318,0,U,43262,999,44678,.5691956E-5,-.12E-6,0
SENTINEL-3B,2018-039A,2026-07-14T19:42:03.001248,14.26736193,.00011351,98.6236,262.9549,119.3796,240.7498,0,U,43437,999,42806,.31776681E-4,.33E-6,0
GAOFEN-5 01,2018-043A,2026-07-14T20:59:27.955104,14.60623120,.00021063,98.4589,168.0454,32.8229,327.3102,0,U,43461,999,43573,.35458692E-4,.123E-5,0
GAOFEN-6,2018-048A,2026-07-14T23:50:07.920672,14.76382178,.00121311,98.0965,258.6942,82.2074,278.0512,0,U,43484,999,43749,.17098483E-4,.66E-6,0
